{
  "norad_id": 66444,
  "name": "STARLINK-35360",
  "history": [
    {
      "epoch": "2026-03-28T13:49:14.073312Z",
      "apogee_km": 484.0200373979078,
      "perigee_km": 481.9232825914132,
      "latitude_deg": 2.9789557190532773e-05,
      "longitude_deg": 134.03396628496083,
      "height_km": 482.7757639471618,
      "semi_major_axis_km": 6861.10865999466,
      "eccentricity": 0.0001528,
      "inclination_deg": 42.9995,
      "raan_deg": 167.3369,
      "arg_perigee_deg": 268.5044,
      "mean_anomaly_deg": 91.5633,
      "mean_motion_rev_day": 15.27605861
    },
    {
      "epoch": "2026-03-29T05:30:48.527712Z",
      "apogee_km": 483.41005586776555,
      "perigee_km": 482.6059296746116,
      "latitude_deg": -1.2030536306325518e-05,
      "longitude_deg": -105.69332302973974,
      "height_km": 482.7312151034619,
      "semi_major_axis_km": 6861.144992771188,
      "eccentricity": 5.86e-05,
      "inclination_deg": 42.9993,
      "raan_deg": 163.6477,
      "arg_perigee_deg": 82.6409,
      "mean_anomaly_deg": 277.4509,
      "mean_motion_rev_day": 15.27593727
    },
    {
      "epoch": "2026-03-29T21:12:24.424128Z",
      "apogee_km": 484.28956557660877,
      "perigee_km": 481.923808753274,
      "latitude_deg": -2.5584874449053655e-05,
      "longitude_deg": 14.566793336883054,
      "height_km": 482.82450285421334,
      "semi_major_axis_km": 6861.243687164941,
      "eccentricity": 0.0001724,
      "inclination_deg": 43.0062,
      "raan_deg": 159.9519,
      "arg_perigee_deg": 272.9002,
      "mean_anomaly_deg": 87.1652,
      "mean_motion_rev_day": 15.27560767
    },
    {
      "epoch": "2026-03-29T21:12:24.424992Z",
      "apogee_km": 484.2897028014813,
      "perigee_km": 481.9236715284005,
      "latitude_deg": -2.401420418139588e-05,
      "longitude_deg": 14.566791401695575,
      "height_km": 482.8244959121082,
      "semi_major_axis_km": 6861.243687164941,
      "eccentricity": 0.00017242,
      "inclination_deg": 43.0062,
      "raan_deg": 159.9519,
      "arg_perigee_deg": 272.9002,
      "mean_anomaly_deg": 87.1652,
      "mean_motion_rev_day": 15.27560767
    },
    {
      "epoch": "2026-03-30T12:53:56.850720Z",
      "apogee_km": 483.987002153136,
      "perigee_km": 481.60982525099644,
      "latitude_deg": -1.2159603146996823e-05,
      "longitude_deg": 134.84543599664747,
      "height_km": 482.5891270266193,
      "semi_major_axis_km": 6860.9354137020655,
      "eccentricity": 0.00017324,
      "inclination_deg": 43.0034,
      "raan_deg": 156.2601,
      "arg_perigee_deg": 269.3553,
      "mean_anomaly_deg": 90.71,
      "mean_motion_rev_day": 15.27663722
    },
    {
      "epoch": "2026-03-30T20:44:43.823040Z",
      "apogee_km": 483.2314800982822,
      "perigee_km": 482.7270508304464,
      "latitude_deg": 5.266787810731558e-07,
      "longitude_deg": 14.98119247651965,
      "height_km": 482.71667427700686,
      "semi_major_axis_km": 6861.116265464364,
      "eccentricity": 3.676e-05,
      "inclination_deg": 43.0016,
      "raan_deg": 154.4138,
      "arg_perigee_deg": 278.7901,
      "mean_anomaly_deg": 81.2909,
      "mean_motion_rev_day": 15.27603321
    },
    {
      "epoch": "2026-03-31T12:26:15.689760Z",
      "apogee_km": 485.16200978562756,
      "perigee_km": 480.822757118357,
      "latitude_deg": -4.741228769843313e-05,
      "longitude_deg": 135.260009099018,
      "height_km": 483.28391631900706,
      "semi_major_axis_km": 6861.129383451992,
      "eccentricity": 0.00031622,
      "inclination_deg": 43.005,
      "raan_deg": 150.7199,
      "arg_perigee_deg": 256.319,
      "mean_anomaly_deg": 103.7309,
      "mean_motion_rev_day": 15.2759894
    },
    {
      "epoch": "2026-04-01T04:07:50.873376Z",
      "apogee_km": 483.67335322056624,
      "perigee_km": 482.48361845532145,
      "latitude_deg": -1.4291902311014611e-05,
      "longitude_deg": -104.47414608650445,
      "height_km": 483.1011133978647,
      "semi_major_axis_km": 6861.215485837944,
      "eccentricity": 8.67e-05,
      "inclination_deg": 42.9983,
      "raan_deg": 147.0268,
      "arg_perigee_deg": 245.5009,
      "mean_anomaly_deg": 114.5752,
      "mean_motion_rev_day": 15.27570185
    },
    {
      "epoch": "2026-04-02T19:21:44.970336Z",
      "apogee_km": 484.77833444740736,
      "perigee_km": 481.07610419466073,
      "latitude_deg": 2.7297363604885167e-05,
      "longitude_deg": 16.204307446817086,
      "height_km": 482.43832925915734,
      "semi_major_axis_km": 6861.064219321033,
      "eccentricity": 0.0002698,
      "inclination_deg": 42.9992,
      "raan_deg": 137.7918,
      "arg_perigee_deg": 278.2767,
      "mean_anomaly_deg": 81.7779,
      "mean_motion_rev_day": 15.27620703
    },
    {
      "epoch": "2026-04-02T19:21:44.971200Z",
      "apogee_km": 484.77860888997566,
      "perigee_km": 481.07582975209243,
      "latitude_deg": 3.040998692593203e-05,
      "longitude_deg": 16.204307156488728,
      "height_km": 482.43828975804047,
      "semi_major_axis_km": 6861.064219321033,
      "eccentricity": 0.00026984,
      "inclination_deg": 42.9992,
      "raan_deg": 137.7918,
      "arg_perigee_deg": 278.2767,
      "mean_anomaly_deg": 81.7779,
      "mean_motion_rev_day": 15.27620703
    },
    {
      "epoch": "2026-04-03T11:03:18.494208Z",
      "apogee_km": 483.91847020813566,
      "perigee_km": 481.98227135210163,
      "latitude_deg": -2.3099748621006935e-05,
      "longitude_deg": 136.47929694883857,
      "height_km": 482.79648208146745,
      "semi_major_axis_km": 6861.087370780118,
      "eccentricity": 0.0001411,
      "inclination_deg": 42.9992,
      "raan_deg": 134.101,
      "arg_perigee_deg": 265.883,
      "mean_anomaly_deg": 94.186,
      "mean_motion_rev_day": 15.27612971
    },
    {
      "epoch": "2026-04-04T10:35:40.514496Z",
      "apogee_km": 484.11993030558097,
      "perigee_km": 482.0804961563199,
      "latitude_deg": -7.749028200900346e-07,
      "longitude_deg": 136.8806382341065,
      "height_km": 482.69377416074815,
      "semi_major_axis_km": 6861.23721323095,
      "eccentricity": 0.00014862,
      "inclination_deg": 42.9996,
      "raan_deg": 128.5608,
      "arg_perigee_deg": 280.3484,
      "mean_anomaly_deg": 79.72,
      "mean_motion_rev_day": 15.27562929
    },
    {
      "epoch": "2026-04-05T08:33:52.716096Z",
      "apogee_km": 483.80240425164175,
      "perigee_km": 482.2822413608819,
      "latitude_deg": -2.4710841424469177e-06,
      "longitude_deg": 161.2578171162052,
      "height_km": 482.61925555349075,
      "semi_major_axis_km": 6861.179322806262,
      "eccentricity": 0.00011078,
      "inclination_deg": 42.9987,
      "raan_deg": 123.3911,
      "arg_perigee_deg": 285.2067,
      "mean_anomaly_deg": 74.8662,
      "mean_motion_rev_day": 15.27582262
    },
    {
      "epoch": "2026-04-06T01:49:35.668992Z",
      "apogee_km": 484.0646423470662,
      "perigee_km": 481.9025660222769,
      "latitude_deg": 1.8875917606118535e-05,
      "longitude_deg": -102.44095418964899,
      "height_km": 482.612516145624,
      "semi_major_axis_km": 6861.120604184672,
      "eccentricity": 0.00015756,
      "inclination_deg": 43.0001,
      "raan_deg": 119.3302,
      "arg_perigee_deg": 277.8661,
      "mean_anomaly_deg": 82.2012,
      "mean_motion_rev_day": 15.27601872
    },
    {
      "epoch": "2026-04-07T10:46:52.046400Z",
      "apogee_km": 484.1852852879274,
      "perigee_km": 481.8264243744361,
      "latitude_deg": -1.7091369325386557e-05,
      "longitude_deg": 114.13556939666208,
      "height_km": 482.3828327538208,
      "semi_major_axis_km": 6861.1428548311815,
      "eccentricity": 0.0001719,
      "inclination_deg": 43.0016,
      "raan_deg": 111.5784,
      "arg_perigee_deg": 289.8319,
      "mean_anomaly_deg": 70.2347,
      "mean_motion_rev_day": 15.27594441
    },
    {
      "epoch": "2026-04-08T08:45:03.862656Z",
      "apogee_km": 484.1029047989523,
      "perigee_km": 481.96125948165263,
      "latitude_deg": -1.8035272480647569e-06,
      "longitude_deg": 138.5127748156262,
      "height_km": 482.7536367892465,
      "semi_major_axis_km": 6861.169082140302,
      "eccentricity": 0.00015607,
      "inclination_deg": 43.0026,
      "raan_deg": 106.4071,
      "arg_perigee_deg": 272.9749,
      "mean_anomaly_deg": 87.0924,
      "mean_motion_rev_day": 15.27585682
    },
    {
      "epoch": "2026-04-09T08:17:24.445248Z",
      "apogee_km": 483.8754970953314,
      "perigee_km": 482.161580441747,
      "latitude_deg": 5.326779718911432e-05,
      "longitude_deg": 138.9174553199495,
      "height_km": 482.9618243113698,
      "semi_major_axis_km": 6861.1555387685385,
      "eccentricity": 0.0001249,
      "inclination_deg": 42.9984,
      "raan_deg": 100.8642,
      "arg_perigee_deg": 258.7667,
      "mean_anomaly_deg": 101.3045,
      "mean_motion_rev_day": 15.27590205
    },
    {
      "epoch": "2026-04-10T09:23:54.696192Z",
      "apogee_km": 483.93701285050247,
      "perigee_km": 482.09136318092715,
      "latitude_deg": 1.761000471047874e-05,
      "longitude_deg": 115.35710337824848,
      "height_km": 482.73877297393585,
      "semi_major_axis_km": 6861.151188015715,
      "eccentricity": 0.0001345,
      "inclination_deg": 43.002,
      "raan_deg": 94.9611,
      "arg_perigee_deg": 273.2487,
      "mean_anomaly_deg": 86.8211,
      "mean_motion_rev_day": 15.27591658
    },
    {
      "epoch": "2026-04-11T08:56:15.456768Z",
      "apogee_km": 484.11364789141044,
      "perigee_km": 481.8974988402142,
      "latitude_deg": 1.5421708666783584e-05,
      "longitude_deg": 115.76528012084371,
      "height_km": 482.72929352477547,
      "semi_major_axis_km": 6861.1425733658125,
      "eccentricity": 0.0001615,
      "inclination_deg": 43.0022,
      "raan_deg": 89.4225,
      "arg_perigee_deg": 272.7625,
      "mean_anomaly_deg": 87.3042,
      "mean_motion_rev_day": 15.27594535
    }
  ]
}